SAOCOM 1A               
1 43641U 18076A   26104.81112116  .00000591  00000+0  80827-4 0  9997
2 43641  97.8907 292.4744 0001443  91.8488 268.2890 14.82147350406710
H-2A R/B                
1 43682U 18084L   26104.87406186  .00010612  00000+0  24205-3 0  9992
2 43682  98.8678 330.0330 0023087 256.4990 103.3680 15.42884545411359
SAOCOM 1B               
1 46265U 20059A   26104.84238134 -.00000001  00000+0  64442-5 0  9991
2 46265  97.8894 291.6001 0001471  84.1454 275.9927 14.82159052304104
CSS (TIANHE)            
1 48274U 21035A   26104.84996935  .00016086  00000+0  17964-3 0  9992
2 48274  41.4685 347.8435 0005562 209.4927 150.5599 15.62394233283263
COSMOS 2550             
1 48865U 21056A   26104.18587058 -.00000180  00000+0  36684-6 0  9992
2 48865  67.1432 293.5083 0008374 268.8034  91.2161 15.33831095268902
CZ-2C R/B               
1 52794U 22058K   26104.80515895  .00022823  00000+0  30459-3 0  9998
2 52794  50.1865 132.1202 0040379 355.4659   4.5942 15.56978256215753
CZ-2C R/B               
1 54039U 22132E   26104.46696833  .00027045  00000+0  27187-3 0  9994
2 54039  97.2943 108.9642 0013693 323.5181  36.5144 15.65315361195961
GSLV R/B                
1 54149U 22138AN  26104.61942369  .00001493  00000+0  12674-3 0  9991
2 54149  87.3835 154.3279 0022407  27.6774 332.5645 14.96988896189305
XRISM                   
1 57800U 23137A   26104.88984993  .00003018  00000+0  16634-3 0  9991
2 57800  31.0026  49.4392 0007533  43.2679 316.8550 15.11912363143271
ACS3                    
1 59588U 24077B   26104.54937875  .00002786  00000+0  21868-2 0  9995
2 59588  97.1910  37.6042 0072226 359.7596   0.3522 13.91258553 99180
HTV-X1                  
1 66174U 25241A   26104.77668913  .00004085  00000+0  13918-3 0  9999
2 66174  51.6355 259.0566 0007486 312.6087  47.4262 15.32643759 26475
SZ-21 MODULE            
1 66515U 25246C   26104.37722752  .00023082  00000+0  17761-3 0  9999
2 66515  41.4754 343.2008 0004464 270.1131  89.9200 15.71436238 23680
