[{"OBJECT_NAME":"SAOCOM 1A","OBJECT_ID":"2018-076A","EPOCH":"2026-04-14T19:28:00.868224","MEAN_MOTION":14.8214735,"ECCENTRICITY":0.0001443,"INCLINATION":97.8907,"RA_OF_ASC_NODE":292.4744,"ARG_OF_PERICENTER":91.8488,"MEAN_ANOMALY":268.289,"EPHEMERIS_TYPE":0,"CLASSIFICATION_TYPE":"U","NORAD_CAT_ID":43641,"ELEMENT_SET_NO":999,"REV_AT_EPOCH":40671,"BSTAR":8.0827e-5,"MEAN_MOTION_DOT":5.91e-6,"MEAN_MOTION_DDOT":0},{"OBJECT_NAME":"H-2A R/B","OBJECT_ID":"2018-084L","EPOCH":"2026-04-14T20:58:38.944704","MEAN_MOTION":15.42884545,"ECCENTRICITY":0.0023087,"INCLINATION":98.8678,"RA_OF_ASC_NODE":330.033,"ARG_OF_PERICENTER":256.499,"MEAN_ANOMALY":103.368,"EPHEMERIS_TYPE":0,"CLASSIFICATION_TYPE":"U","NORAD_CAT_ID":43682,"ELEMENT_SET_NO":999,"REV_AT_EPOCH":41135,"BSTAR":0.00024205,"MEAN_MOTION_DOT":0.00010612,"MEAN_MOTION_DDOT":0},{"OBJECT_NAME":"SAOCOM 1B","OBJECT_ID":"2020-059A","EPOCH":"2026-04-14T20:13:01.747776","MEAN_MOTION":14.82159052,"ECCENTRICITY":0.0001471,"INCLINATION":97.8894,"RA_OF_ASC_NODE":291.6001,"ARG_OF_PERICENTER":84.1454,"MEAN_ANOMALY":275.9927,"EPHEMERIS_TYPE":0,"CLASSIFICATION_TYPE":"U","NORAD_CAT_ID":46265,"ELEMENT_SET_NO":999,"REV_AT_EPOCH":30410,"BSTAR":6.4442e-6,"MEAN_MOTION_DOT":-1.0e-8,"MEAN_MOTION_DDOT":0},{"OBJECT_NAME":"CSS (TIANHE)","OBJECT_ID":"2021-035A","EPOCH":"2026-04-14T20:23:57.351840","MEAN_MOTION":15.62394233,"ECCENTRICITY":0.0005562,"INCLINATION":41.4685,"RA_OF_ASC_NODE":347.8435,"ARG_OF_PERICENTER":209.4927,"MEAN_ANOMALY":150.5599,"EPHEMERIS_TYPE":0,"CLASSIFICATION_TYPE":"U","NORAD_CAT_ID":48274,"ELEMENT_SET_NO":999,"REV_AT_EPOCH":28326,"BSTAR":0.00017964,"MEAN_MOTION_DOT":0.00016086,"MEAN_MOTION_DDOT":0},{"OBJECT_NAME":"COSMOS 2550","OBJECT_ID":"2021-056A","EPOCH":"2026-04-14T04:27:39.218112","MEAN_MOTION":15.33831095,"ECCENTRICITY":0.00083746,"INCLINATION":67.1432,"RA_OF_ASC_NODE":293.5083,"ARG_OF_PERICENTER":268.8034,"MEAN_ANOMALY":91.2161,"EPHEMERIS_TYPE":0,"CLASSIFICATION_TYPE":"U","NORAD_CAT_ID":48865,"ELEMENT_SET_NO":999,"REV_AT_EPOCH":26890,"BSTAR":3.66837e-7,"MEAN_MOTION_DOT":-1.8e-6,"MEAN_MOTION_DDOT":0},{"OBJECT_NAME":"CZ-2C R/B","OBJECT_ID":"2022-058K","EPOCH":"2026-04-14T19:19:25.733280","MEAN_MOTION":15.56978256,"ECCENTRICITY":0.0040379,"INCLINATION":50.1865,"RA_OF_ASC_NODE":132.1202,"ARG_OF_PERICENTER":355.4659,"MEAN_ANOMALY":4.5942,"EPHEMERIS_TYPE":0,"CLASSIFICATION_TYPE":"U","NORAD_CAT_ID":52794,"ELEMENT_SET_NO":999,"REV_AT_EPOCH":21575,"BSTAR":0.00030459,"MEAN_MOTION_DOT":0.00022823,"MEAN_MOTION_DDOT":0},{"OBJECT_NAME":"CZ-2C R/B","OBJECT_ID":"2022-132E","EPOCH":"2026-04-14T11:12:26.063712","MEAN_MOTION":15.65315361,"ECCENTRICITY":0.0013693,"INCLINATION":97.2943,"RA_OF_ASC_NODE":108.9642,"ARG_OF_PERICENTER":323.5181,"MEAN_ANOMALY":36.5144,"EPHEMERIS_TYPE":0,"CLASSIFICATION_TYPE":"U","NORAD_CAT_ID":54039,"ELEMENT_SET_NO":999,"REV_AT_EPOCH":19596,"BSTAR":0.00027187467,"MEAN_MOTION_DOT":0.00027045,"MEAN_MOTION_DDOT":0},{"OBJECT_NAME":"GSLV R/B","OBJECT_ID":"2022-138AN","EPOCH":"2026-04-14T14:51:58.206816","MEAN_MOTION":14.96988896,"ECCENTRICITY":0.0022407,"INCLINATION":87.3835,"RA_OF_ASC_NODE":154.3279,"ARG_OF_PERICENTER":27.6774,"MEAN_ANOMALY":332.5645,"EPHEMERIS_TYPE":0,"CLASSIFICATION_TYPE":"U","NORAD_CAT_ID":54149,"ELEMENT_SET_NO":999,"REV_AT_EPOCH":18930,"BSTAR":0.00012674,"MEAN_MOTION_DOT":1.493e-5,"MEAN_MOTION_DDOT":0},{"OBJECT_NAME":"XRISM","OBJECT_ID":"2023-137A","EPOCH":"2026-04-14T21:21:23.033952","MEAN_MOTION":15.11912363,"ECCENTRICITY":0.0007533,"INCLINATION":31.0026,"RA_OF_ASC_NODE":49.4392,"ARG_OF_PERICENTER":43.2679,"MEAN_ANOMALY":316.855,"EPHEMERIS_TYPE":0,"CLASSIFICATION_TYPE":"U","NORAD_CAT_ID":57800,"ELEMENT_SET_NO":999,"REV_AT_EPOCH":14327,"BSTAR":0.00016634,"MEAN_MOTION_DOT":3.018e-5,"MEAN_MOTION_DDOT":0},{"OBJECT_NAME":"ACS3","OBJECT_ID":"2024-077B","EPOCH":"2026-04-14T13:11:06.324000","MEAN_MOTION":13.91258553,"ECCENTRICITY":0.0072226,"INCLINATION":97.191,"RA_OF_ASC_NODE":37.6042,"ARG_OF_PERICENTER":359.7596,"MEAN_ANOMALY":0.3522,"EPHEMERIS_TYPE":0,"CLASSIFICATION_TYPE":"U","NORAD_CAT_ID":59588,"ELEMENT_SET_NO":999,"REV_AT_EPOCH":9918,"BSTAR":0.0021868,"MEAN_MOTION_DOT":2.786e-5,"MEAN_MOTION_DDOT":0},{"OBJECT_NAME":"HTV-X1","OBJECT_ID":"2025-241A","EPOCH":"2026-04-14T18:38:25.940832","MEAN_MOTION":15.32643759,"ECCENTRICITY":0.0007486,"INCLINATION":51.6355,"RA_OF_ASC_NODE":259.0566,"ARG_OF_PERICENTER":312.6087,"MEAN_ANOMALY":47.4262,"EPHEMERIS_TYPE":0,"CLASSIFICATION_TYPE":"U","NORAD_CAT_ID":66174,"ELEMENT_SET_NO":999,"REV_AT_EPOCH":2647,"BSTAR":0.00013918,"MEAN_MOTION_DOT":4.085e-5,"MEAN_MOTION_DDOT":0},{"OBJECT_NAME":"SZ-21 MODULE","OBJECT_ID":"2025-246C","EPOCH":"2026-04-14T09:03:12.457728","MEAN_MOTION":15.71436238,"ECCENTRICITY":0.00044642,"INCLINATION":41.4754,"RA_OF_ASC_NODE":343.2008,"ARG_OF_PERICENTER":270.1131,"MEAN_ANOMALY":89.92,"EPHEMERIS_TYPE":0,"CLASSIFICATION_TYPE":"U","NORAD_CAT_ID":66515,"ELEMENT_SET_NO":999,"REV_AT_EPOCH":2368,"BSTAR":0.00017761477,"MEAN_MOTION_DOT":0.00023082,"MEAN_MOTION_DDOT":0}]
